GLOBALSTAR M084         
1 38040U 11080A   24258.91075057 -.00000077  00000+0  15087-3 0  9998
2 38040  52.0001 166.5169 0000631  92.8521 345.1999 12.62267407587902
GLOBALSTAR M080         
1 38041U 11080B   24258.51168756 -.00000087  00000+0  95132-4 0  9995
2 38041  52.0051 169.2419 0000904  91.6101  92.0668 12.62265485587972
GLOBALSTAR M082         
1 38042U 11080C   24258.88358076 -.00000064  00000+0  22073-3 0  9990
2 38042  52.0063 123.5271 0000620  31.2570 343.2800 12.62266589588909
GLOBALSTAR M092         
1 38043U 11080D   24258.65410271 -.00000101  00000+0  15533-4 0  9998
2 38043  52.0069 214.5864 0000308  76.2094  95.2026 12.62265898587150
GLOBALSTAR M090         
1 38044U 11080E   24258.90983502 -.00000075  00000+0  15994-3 0  9999
2 38044  51.9871 117.6101 0000696  54.7979 319.0947 12.62267620588852
GLOBALSTAR M086         
1 38045U 11080F   24258.93599450 -.00000070  00000+0  18980-3 0  9991
2 38045  51.9884 118.0591 0001686  71.0455 302.4446 12.62267049588806
GLOBALSTAR M097         
1 39072U 13005A   24258.80150384 -.00000095  00000+0  46597-4 0  9999
2 39072  52.0067  32.7363 0000857  76.7559 283.3403 12.62270432536035
GLOBALSTAR M093         
1 39073U 13005B   24258.85378100 -.00000089  00000+0  81925-4 0  9990
2 39073  51.9835  26.3177 0000793  73.8992 286.1961 12.62264012535998
